NORAD_CAT_ID,OBJECT_NAME,OBJECT_TYPE,EPOCH,MEAN_MOTION,ECCENTRICITY,INCLINATION,RA_OF_ASC_NODE,ARG_OF_PERICENTER,MEAN_ANOMALY,BSTAR,MEAN_MOTION_DOT,MEAN_MOTION_DDOT,TLE_LINE0,TLE_LINE1,TLE_LINE2,SEMIMAJOR_AXIS,PERIOD,APOGEE,PERIGEE,DECAYED
53780.0,STARLINK-4678,PAYLOAD,2023-04-02 04:45:29,15.08839221,0.000135,53.2184,48.912,105.4599,254.6542,0.00035602,5.383e-05,0.0,0 STARLINK-4678,1 53780U 22111H   23092.19825497  .00005383  00000-0  35602-3 0  9999,2 53780  53.2184  48.9120 0001350 105.4599 254.6542 15.08839221 30970,6917.883,95.438,540.682,538.814,0.0
53780.0,STARLINK-4678,PAYLOAD,2023-04-02 20:39:20,15.08841213,0.0001346,53.2187,45.9386,101.6216,258.4927,0.00026772,3.976e-05,0.0,0 STARLINK-4678,1 53780U 22111H   23092.86065591  .00003976  00000-0  26772-3 0  9998,2 53780  53.2187  45.9386 0001346 101.6216 258.4927 15.08841213 31887,6917.877,95.437,540.673,538.811,0.0
53780.0,STARLINK-4678,PAYLOAD,2023-04-03 06:11:39,15.08853854,0.0001336,53.2184,44.1542,93.3609,266.7536,0.00053324,8.212e-05,0.0,0 STARLINK-4678,1 53780U 22111H   23093.25809214  .00008212  00000-0  53324-3 0  9991,2 53780  53.2184  44.1542 0001336  93.3609 266.7536 15.08853854 31131,6917.838,95.437,540.627,538.779,0.0
53780.0,STARLINK-4678,PAYLOAD,2023-04-04 06:02:25,15.08860526,0.000151,53.2189,39.6943,105.3914,254.7245,0.00047792,7.331e-05,0.0,0 STARLINK-4678,1 53780U 22111H   23094.25168680  .00007331  00000-0  47792-3 0  9990,2 53780  53.2189  39.6943 0001510 105.3914 254.7245 15.08860526 31281,6917.818,95.436,540.727,538.638,0.0
53780.0,STARLINK-4678,PAYLOAD,2023-04-04 20:20:54,15.08833103,0.0001541,53.2189,37.0176,93.6805,266.4363,-6.4435e-05,-1.313e-05,0.0,0 STARLINK-4678,1 53780U 22111H   23094.84785539 -.00001313  00000-0 -64435-4 0  9993,2 53780  53.2189  37.0176 0001541  93.6805 266.4363 15.08833103 31375,6917.901,95.438,540.833,538.7,0.0
53780.0,STARLINK-4678,PAYLOAD,2023-04-05 05:53:13,15.08836232,0.0001432,53.219,35.2332,97.668,262.4474,4.7059e-06,-2.13e-06,0.0,0 STARLINK-4678,1 53780U 22111H   23095.24529746 -.00000213  00000-0  47059-5 0  9995,2 53780  53.2190  35.2332 0001432  97.6680 262.4474 15.08836232 32247,6917.892,95.438,540.748,538.766,0.0
53780.0,STARLINK-4678,PAYLOAD,2023-04-06 05:44:00,15.08860875,0.0001206,53.2189,30.7735,84.1686,275.9444,0.0008088,0.00012615,0.0,0 STARLINK-4678,1 53780U 22111H   23096.23889292  .00012615  00000-0  80880-3 0  9995,2 53780  53.2189  30.7735 0001206  84.1686 275.9444 15.08860875 31580,6917.817,95.436,540.516,538.847,0.0
53780.0,STARLINK-4678,PAYLOAD,2023-04-06 20:02:28,15.08843606,0.0001242,53.2197,28.098,108.734,251.3787,0.00012797,1.75e-05,0.0,0 STARLINK-4678,1 53780U 22111H   23096.83505577  .00001750  00000-0  12797-3 0  9992,2 53780  53.2197  28.0980 0001242 108.7340 251.3787 15.08843606 31672,6917.869,95.437,540.594,538.875,0.0
53780.0,STARLINK-4678,PAYLOAD,2023-04-07 03:59:24,15.08857039,0.0001282,53.2197,26.6129,109.4304,250.6826,0.00074694,0.00011625,0.0,0 STARLINK-4678,1 53780U 22111H   23097.16625296  .00011625  00000-0  74694-3 0  9996,2 53780  53.2197  26.6129 0001282 109.4304 250.6826 15.08857039 31720,6917.828,95.436,540.58,538.806,0.0
53780.0,STARLINK-4678,PAYLOAD,2023-04-07 19:53:16,15.08838209,0.0001347,53.2197,23.6392,103.9145,256.1997,0.00057661,8.9e-05,0.0,0 STARLINK-4678,1 53780U 22111H   23097.82865745  .00008900  00000-0  57661-3 0  9991,2 53780  53.2197  23.6392 0001347 103.9145 256.1997 15.08838209 31822,6917.886,95.438,540.683,538.819,0.0
53780.0,STARLINK-4678,PAYLOAD,2023-04-08 03:50:11,15.08843448,0.0001307,53.2191,22.1537,107.0568,253.0567,0.00015814,2.23e-05,0.0,0 STARLINK-4678,1 53780U 22111H   23098.15985614  .00002230  00000-0  15814-3 0  9990,2 53780  53.2191  22.1537 0001307 107.0568 253.0567 15.08843448 32686,6917.87,95.437,540.639,538.831,0.0
53780.0,STARLINK-4678,PAYLOAD,2023-04-09 03:40:58,15.08843781,0.0001332,53.2187,17.6929,109.89,250.2236,0.00017643,2.521e-05,0.0,0 STARLINK-4678,1 53780U 22111H   23099.15345800  .00002521  00000-0  17643-3 0  9993,2 53780  53.2187  17.6929 0001332 109.8900 250.2236 15.08843781 32023,6917.869,95.437,540.655,538.812,0.0
53780.0,STARLINK-4678,PAYLOAD,2023-04-10 00:20:59,15.08840791,0.0001495,53.2188,13.8265,80.9024,279.2137,0.00013391,1.844e-05,0.0,0 STARLINK-4678,1 53780U 22111H   23100.01458241  .00001844  00000-0  13391-3 0  9998,2 53780  53.2188  13.8265 0001495  80.9024 279.2137 15.08840791 32154,6917.878,95.438,540.777,538.709,0.0
53780.0,STARLINK-4678,PAYLOAD,2023-04-10 03:31:45,15.08846623,0.0001339,53.2183,13.2311,93.1656,266.949,0.00024972,3.689e-05,0.0,0 STARLINK-4678,1 53780U 22111H   23100.14705945  .00003689  00000-0  24972-3 0  9994,2 53780  53.2183  13.2311 0001339  93.1656 266.9490 15.08846623 32985,6917.86,95.437,540.651,538.799,0.0
53780.0,STARLINK-4678,PAYLOAD,2023-04-11 03:22:32,15.08852069,0.0001365,53.2184,8.7689,84.6077,275.5071,0.00020126,2.918e-05,0.0,0 STARLINK-4678,1 53780U 22111H   23101.14065600  .00002918  00000-0  20126-3 0  9993,2 53780  53.2184   8.7689 0001365  84.6077 275.5071 15.08852069 33134,6917.843,95.437,540.653,538.764,0.0
53780.0,STARLINK-4678,PAYLOAD,2023-04-11 17:41:01,15.08837925,0.0001099,53.2181,6.0939,77.9003,282.2112,-2.2411e-05,-6.44e-06,0.0,0 STARLINK-4678,1 53780U 22111H   23101.73682428 -.00000644  00000-0 -22411-4 0  9997,2 53780  53.2181   6.0939 0001099  77.9003 282.2112 15.08837925 32413,6917.887,95.438,540.512,538.991,0.0
53780.0,STARLINK-4678,PAYLOAD,2023-04-12 00:02:34,15.08841208,0.0001331,53.2182,4.9056,80.036,280.0782,1.9934e-05,2.9e-07,0.0,0 STARLINK-4678,1 53780U 22111H   23102.00178285  .00000029  00000-0  19934-4 0  9990,2 53780  53.2182   4.9056 0001331  80.0360 280.0782 15.08841208 33263,6917.877,95.437,540.662,538.821,0.0
53780.0,STARLINK-4678,PAYLOAD,2023-04-13 03:04:07,15.08846501,0.0001166,53.2181,359.85,91.3299,268.7826,2.7863e-05,1.56e-06,0.0,0 STARLINK-4678,1 53780U 22111H   23103.12785884  .00000156  00000-0  27863-4 0  9994,2 53780  53.2181 359.8500 0001166  91.3299 268.7826 15.08846501 33432,6917.861,95.437,540.532,538.919,0.0
53780.0,STARLINK-4678,PAYLOAD,2023-04-13 20:33:21,15.08838078,0.0001241,53.2181,356.5784,97.1158,262.9976,4.6084e-05,4.46e-06,0.0,0 STARLINK-4678,1 53780U 22111H   23103.85650387  .00000446  00000-0  46084-4 0  9991,2 53780  53.2181 356.5784 0001241  97.1158 262.9976 15.08838078 32736,6917.886,95.438,540.61,538.893,0.0
53780.0,STARLINK-4678,PAYLOAD,2023-04-14 01:19:31,15.0884442,9.89e-05,53.2176,355.6875,89.3736,270.737,0.00014032,1.946e-05,0.0,0 STARLINK-4678,1 53780U 22111H   23104.05522074  .00001946  00000-0  14032-3 0  9998,2 53780  53.2176 355.6875 0000989  89.3736 270.7370 15.08844420 33570,6917.867,95.437,540.416,539.048,0.0
53780.0,STARLINK-4678,PAYLOAD,2023-04-14 23:34:55,15.08846297,0.0001124,53.2172,351.5244,92.5461,267.566,0.00020513,2.979e-05,0.0,0 STARLINK-4678,1 53780U 22111H   23104.98258153  .00002979  00000-0  20513-3 0  9992,2 53780  53.2172 351.5244 0001124  92.5461 267.5660 15.08846297 32900,6917.861,95.437,540.504,538.949,0.0
53780.0,STARLINK-4678,PAYLOAD,2023-04-15 02:45:41,15.08849571,0.0001183,53.2175,350.9297,94.7357,265.377,0.0002634,3.908e-05,0.0,0 STARLINK-4678,1 53780U 22111H   23105.11506041  .00003908  00000-0  26340-3 0  9997,2 53780  53.2175 350.9297 0001183  94.7357 265.3770 15.08849571 33735,6917.851,95.437,540.535,538.898,0.0
53780.0,STARLINK-4678,PAYLOAD,2023-04-15 21:50:19,15.08835694,0.0001243,53.2179,347.3605,92.7231,267.3903,-2.4077e-05,-6.71e-06,0.0,0 STARLINK-4678,1 53780U 22111H   23105.90994764 -.00000671  00000-0 -24077-4 0  9999,2 53780  53.2179 347.3605 0001243  92.7231 267.3903 15.08835694 33852,6917.894,95.438,540.618,538.899,0.0
53780.0,STARLINK-4678,PAYLOAD,2023-04-16 01:01:05,15.08839036,0.0001175,53.2177,346.7655,82.5802,277.5323,6.6232e-05,7.66e-06,0.0,0 STARLINK-4678,1 53780U 22111H   23106.04242734  .00000766  00000-0  66232-4 0  9990,2 53780  53.2177 346.7655 0001175  82.5802 277.5323 15.08839036 33878,6917.883,95.438,540.561,538.935,0.0
53780.0,STARLINK-4678,PAYLOAD,2023-04-16 21:41:06,15.08844883,0.0001162,53.2175,342.9003,89.7647,270.3478,0.00021069,3.067e-05,0.0,0 STARLINK-4678,1 53780U 22111H   23106.90354844  .00003067  00000-0  21069-3 0  9996,2 53780  53.2175 342.9003 0001162  89.7647 270.3478 15.08844883 34007,6917.865,95.437,540.534,538.927,0.0
53780.0,STARLINK-4678,PAYLOAD,2023-04-17 00:51:52,15.08848691,0.0001082,53.2174,342.3062,78.2409,281.8704,0.00038217,5.801e-05,0.0,0 STARLINK-4678,1 53780U 22111H   23107.03602784  .00005801  00000-0  38217-3 0  9991,2 53780  53.2174 342.3062 0001082  78.2409 281.8704 15.08848691 33217,6917.854,95.437,540.467,538.97,0.0
53780.0,STARLINK-4678,PAYLOAD,2023-04-17 19:56:30,15.08840547,0.0001073,53.2175,338.7388,68.4483,291.6623,0.00011527,1.547e-05,0.0,0 STARLINK-4678,1 53780U 22111H   23107.83091169  .00001547  00000-0  11527-3 0  9996,2 53780  53.2175 338.7388 0001073  68.4483 291.6623 15.08840547 33335,6917.879,95.438,540.486,539.001,0.0
53780.0,STARLINK-4678,PAYLOAD,2023-04-17 21:31:53,15.08842379,9.67e-05,53.217,338.4406,80.3684,279.7418,0.00016917,2.406e-05,0.0,0 STARLINK-4678,1 53780U 22111H   23107.89715067  .00002406  00000-0  16917-3 0  9995,2 53780  53.2170 338.4406 0000967  80.3684 279.7418 15.08842379 34150,6917.873,95.437,540.407,539.069,0.0
53780.0,STARLINK-4678,PAYLOAD,2023-04-18 00:42:39,15.08848097,0.00011,53.2172,337.846,80.2095,279.9021,0.00027588,4.106e-05,0.0,0 STARLINK-4678,1 53780U 22111H   23108.02962891  .00004106  00000-0  27588-3 0  9995,2 53780  53.2172 337.8460 0001100  80.2095 279.9021 15.08848097 34177,6917.856,95.437,540.482,538.96,0.0
53780.0,STARLINK-4678,PAYLOAD,2023-04-18 21:22:41,15.08842917,0.00012,53.2169,333.9801,74.8305,285.2819,0.00015399,2.164e-05,0.0,0 STARLINK-4678,1 53780U 22111H   23108.89075258  .00002164  00000-0  15399-3 0  9991,2 53780  53.2169 333.9801 0001200  74.8305 285.2819 15.08842917 33497,6917.871,95.437,540.567,538.906,0.0
